STARLINK-31574          
1 59543U 24074K   26068.17193650 -.00002487  00000+0 -80926-4 0  9998
2 59543  43.0004 346.5792 0000980 281.8473  78.2269 15.27571080105933
LUR-1                   
1 60506U 24149AQ  26068.79566301  .00009121  00000+0  32985-3 0  9998
2 60506  97.3790 148.4255 0002777 309.1571  50.9421 15.28658648 86785
